[{"OBJECT_NAME":"STARLINK-11715 [DTC]","OBJECT_ID":"2025-107N","EPOCH":"2025-11-08T03:20:48.759072","MEAN_MOTION":15.70885605,"ECCENTRICITY":5.292e-5,"INCLINATION":42.9992,"RA_OF_ASC_NODE":110.6882,"ARG_OF_PERICENTER":12.6641,"MEAN_ANOMALY":347.424,"EPHEMERIS_TYPE":0,"CLASSIFICATION_TYPE":"U","NORAD_CAT_ID":64076,"ELEMENT_SET_NO":999,"REV_AT_EPOCH":2818,"BSTAR":0.0017577187,"MEAN_MOTION_DOT":0.00231946,"MEAN_MOTION_DDOT":0},{"OBJECT_NAME":"STARLINK-34201","OBJECT_ID":"2025-107P","EPOCH":"2025-11-08T07:25:25.188384","MEAN_MOTION":15.27615953,"ECCENTRICITY":0.0001764,"INCLINATION":43.001,"RA_OF_ASC_NODE":167.3259,"ARG_OF_PERICENTER":262.8531,"MEAN_ANOMALY":97.212,"EPHEMERIS_TYPE":0,"CLASSIFICATION_TYPE":"U","NORAD_CAT_ID":64077,"ELEMENT_SET_NO":999,"REV_AT_EPOCH":2646,"BSTAR":0.0018812,"MEAN_MOTION_DOT":0.00051927,"MEAN_MOTION_DDOT":0},{"OBJECT_NAME":"STARLINK-34190","OBJECT_ID":"2025-107Q","EPOCH":"2025-11-07T21:23:28.312224","MEAN_MOTION":15.27561073,"ECCENTRICITY":0.00021306,"INCLINATION":42.9993,"RA_OF_ASC_NODE":169.3376,"ARG_OF_PERICENTER":275.5715,"MEAN_ANOMALY":84.4893,"EPHEMERIS_TYPE":0,"CLASSIFICATION_TYPE":"U","NORAD_CAT_ID":64078,"ELEMENT_SET_NO":999,"REV_AT_EPOCH":2749,"BSTAR":0.001046846,"MEAN_MOTION_DOT":0.00028641,"MEAN_MOTION_DDOT":0},{"OBJECT_NAME":"STARLINK-34168","OBJECT_ID":"2025-107R","EPOCH":"2025-11-07T16:15:05.323680","MEAN_MOTION":15.27607821,"ECCENTRICITY":0.00024188,"INCLINATION":42.9939,"RA_OF_ASC_NODE":170.3039,"ARG_OF_PERICENTER":168.1755,"MEAN_ANOMALY":191.9153,"EPHEMERIS_TYPE":0,"CLASSIFICATION_TYPE":"U","NORAD_CAT_ID":64079,"ELEMENT_SET_NO":999,"REV_AT_EPOCH":2746,"BSTAR":0.0017516364,"MEAN_MOTION_DOT":0.00048299,"MEAN_MOTION_DDOT":0},{"OBJECT_NAME":"STARLINK-34098","OBJECT_ID":"2025-107S","EPOCH":"2025-11-07T22:42:49.671936","MEAN_MOTION":15.27564806,"ECCENTRICITY":0.00015862,"INCLINATION":42.9992,"RA_OF_ASC_NODE":168.8909,"ARG_OF_PERICENTER":275.4345,"MEAN_ANOMALY":84.6326,"EPHEMERIS_TYPE":0,"CLASSIFICATION_TYPE":"U","NORAD_CAT_ID":64080,"ELEMENT_SET_NO":999,"REV_AT_EPOCH":2750,"BSTAR":0.0011640398,"MEAN_MOTION_DOT":0.00031894,"MEAN_MOTION_DDOT":0},{"OBJECT_NAME":"STARLINK-34180","OBJECT_ID":"2025-107T","EPOCH":"2025-11-08T02:22:35.652000","MEAN_MOTION":15.27586947,"ECCENTRICITY":0.00017851,"INCLINATION":42.9977,"RA_OF_ASC_NODE":168.3231,"ARG_OF_PERICENTER":275.7655,"MEAN_ANOMALY":84.2993,"EPHEMERIS_TYPE":0,"CLASSIFICATION_TYPE":"U","NORAD_CAT_ID":64081,"ELEMENT_SET_NO":999,"REV_AT_EPOCH":2752,"BSTAR":0.0014097815,"MEAN_MOTION_DOT":0.00038745,"MEAN_MOTION_DDOT":0},{"OBJECT_NAME":"STARLINK-34171","OBJECT_ID":"2025-107U","EPOCH":"2025-11-07T20:52:01.035552","MEAN_MOTION":15.27565488,"ECCENTRICITY":0.00017524,"INCLINATION":43.0026,"RA_OF_ASC_NODE":169.1778,"ARG_OF_PERICENTER":284.6579,"MEAN_ANOMALY":75.4079,"EPHEMERIS_TYPE":0,"CLASSIFICATION_TYPE":"U","NORAD_CAT_ID":64082,"ELEMENT_SET_NO":999,"REV_AT_EPOCH":2749,"BSTAR":0.0012253325,"MEAN_MOTION_DOT":0.00033595,"MEAN_MOTION_DDOT":0},{"OBJECT_NAME":"STARLINK-34126","OBJECT_ID":"2025-107V","EPOCH":"2025-11-07T23:29:04.338816","MEAN_MOTION":15.27603851,"ECCENTRICITY":0.00010424,"INCLINATION":42.9976,"RA_OF_ASC_NODE":169.1403,"ARG_OF_PERICENTER":285.952,"MEAN_ANOMALY":74.1217,"EPHEMERIS_TYPE":0,"CLASSIFICATION_TYPE":"U","NORAD_CAT_ID":64083,"ELEMENT_SET_NO":999,"REV_AT_EPOCH":2641,"BSTAR":0.0014497641,"MEAN_MOTION_DOT":0.00039877,"MEAN_MOTION_DDOT":0},{"OBJECT_NAME":"STARLINK-34157","OBJECT_ID":"2025-107W","EPOCH":"2025-11-07T21:04:58.223424","MEAN_MOTION":15.27557201,"ECCENTRICITY":0.00018695,"INCLINATION":43.0018,"RA_OF_ASC_NODE":169.2423,"ARG_OF_PERICENTER":280.8212,"MEAN_ANOMALY":79.243,"EPHEMERIS_TYPE":0,"CLASSIFICATION_TYPE":"U","NORAD_CAT_ID":64084,"ELEMENT_SET_NO":999,"REV_AT_EPOCH":2747,"BSTAR":0.0013419934,"MEAN_MOTION_DOT":0.00036826,"MEAN_MOTION_DDOT":0},{"OBJECT_NAME":"STARLINK-34140","OBJECT_ID":"2025-107X","EPOCH":"2025-11-08T06:59:28.737312","MEAN_MOTION":15.27595275,"ECCENTRICITY":6.601e-5,"INCLINATION":42.9995,"RA_OF_ASC_NODE":167.1797,"ARG_OF_PERICENTER":249.6068,"MEAN_ANOMALY":110.4713,"EPHEMERIS_TYPE":0,"CLASSIFICATION_TYPE":"U","NORAD_CAT_ID":64085,"ELEMENT_SET_NO":999,"REV_AT_EPOCH":2753,"BSTAR":0.0018737899,"MEAN_MOTION_DOT":0.00051687,"MEAN_MOTION_DDOT":0},{"OBJECT_NAME":"STARLINK-34132","OBJECT_ID":"2025-107Y","EPOCH":"2025-11-08T07:14:19.066848","MEAN_MOTION":15.27592076,"ECCENTRICITY":0.00013226,"INCLINATION":43.0019,"RA_OF_ASC_NODE":167.2607,"ARG_OF_PERICENTER":283.4248,"MEAN_ANOMALY":76.6456,"EPHEMERIS_TYPE":0,"CLASSIFICATION_TYPE":"U","NORAD_CAT_ID":64086,"ELEMENT_SET_NO":999,"REV_AT_EPOCH":2752,"BSTAR":0.0014070557,"MEAN_MOTION_DOT":0.00038674,"MEAN_MOTION_DDOT":0},{"OBJECT_NAME":"STARLINK-34178","OBJECT_ID":"2025-110A","EPOCH":"2025-11-08T08:00:03.000384","MEAN_MOTION":15.30152324,"ECCENTRICITY":9.412e-5,"INCLINATION":53.1591,"RA_OF_ASC_NODE":230.6759,"ARG_OF_PERICENTER":94.8254,"MEAN_ANOMALY":103.7444,"EPHEMERIS_TYPE":0,"CLASSIFICATION_TYPE":"U","NORAD_CAT_ID":64096,"ELEMENT_SET_NO":999,"REV_AT_EPOCH":581,"BSTAR":0.0011711154,"MEAN_MOTION_DOT":0.00034436,"MEAN_MOTION_DDOT":0},{"OBJECT_NAME":"STARLINK-34174","OBJECT_ID":"2025-110B","EPOCH":"2025-11-08T02:31:11.234496","MEAN_MOTION":15.39660509,"ECCENTRICITY":9.411e-5,"INCLINATION":53.1607,"RA_OF_ASC_NODE":231.7801,"ARG_OF_PERICENTER":125.0494,"MEAN_ANOMALY":235.0599,"EPHEMERIS_TYPE":0,"CLASSIFICATION_TYPE":"U","NORAD_CAT_ID":64097,"ELEMENT_SET_NO":999,"REV_AT_EPOCH":2726,"BSTAR":0.0011171531,"MEAN_MOTION_DOT":0.00044607,"MEAN_MOTION_DDOT":0},{"OBJECT_NAME":"STARLINK-34146","OBJECT_ID":"2025-110C","EPOCH":"2025-11-08T02:24:01.244160","MEAN_MOTION":15.39642966,"ECCENTRICITY":0.00016734,"INCLINATION":53.1597,"RA_OF_ASC_NODE":231.7497,"ARG_OF_PERICENTER":45.1556,"MEAN_ANOMALY":314.9585,"EPHEMERIS_TYPE":0,"CLASSIFICATION_TYPE":"U","NORAD_CAT_ID":64098,"ELEMENT_SET_NO":999,"REV_AT_EPOCH":2726,"BSTAR":0.0015428264,"MEAN_MOTION_DOT":0.00061862,"MEAN_MOTION_DDOT":0},{"OBJECT_NAME":"STARLINK-34074","OBJECT_ID":"2025-110D","EPOCH":"2025-11-08T12:00:00.998784","MEAN_MOTION":15.30186768,"ECCENTRICITY":0.000139,"INCLINATION":53.1596,"RA_OF_ASC_NODE":229.9631,"ARG_OF_PERICENTER":93.2339,"MEAN_ANOMALY":274.6995,"EPHEMERIS_TYPE":0,"CLASSIFICATION_TYPE":"U","NORAD_CAT_ID":64099,"ELEMENT_SET_NO":999,"REV_AT_EPOCH":594,"BSTAR":0.00015952,"MEAN_MOTION_DOT":4.366e-5,"MEAN_MOTION_DDOT":0},{"OBJECT_NAME":"STARLINK-34082","OBJECT_ID":"2025-110E","EPOCH":"2025-11-08T12:00:00.998784","MEAN_MOTION":15.36389277,"ECCENTRICITY":0.0001068,"INCLINATION":53.1601,"RA_OF_ASC_NODE":229.9806,"ARG_OF_PERICENTER":100.9127,"MEAN_ANOMALY":258.5764,"EPHEMERIS_TYPE":0,"CLASSIFICATION_TYPE":"U","NORAD_CAT_ID":64100,"ELEMENT_SET_NO":999,"REV_AT_EPOCH":589,"BSTAR":-0.049723,"MEAN_MOTION_DOT":-0.01629086,"MEAN_MOTION_DDOT":0},{"OBJECT_NAME":"STARLINK-34072","OBJECT_ID":"2025-110F","EPOCH":"2025-11-07T12:29:31.305408","MEAN_MOTION":15.39332523,"ECCENTRICITY":0.00022412,"INCLINATION":53.1612,"RA_OF_ASC_NODE":234.5325,"ARG_OF_PERICENTER":356.8489,"MEAN_ANOMALY":3.2502,"EPHEMERIS_TYPE":0,"CLASSIFICATION_TYPE":"U","NORAD_CAT_ID":64101,"ELEMENT_SET_NO":999,"REV_AT_EPOCH":2717,"BSTAR":0.0012308671,"MEAN_MOTION_DOT":0.00048686,"MEAN_MOTION_DDOT":0},{"OBJECT_NAME":"STARLINK-34104","OBJECT_ID":"2025-110G","EPOCH":"2025-11-08T02:24:30.567456","MEAN_MOTION":15.39557616,"ECCENTRICITY":0.00027301,"INCLINATION":53.1597,"RA_OF_ASC_NODE":231.7506,"ARG_OF_PERICENTER":45.2391,"MEAN_ANOMALY":314.8835,"EPHEMERIS_TYPE":0,"CLASSIFICATION_TYPE":"U","NORAD_CAT_ID":64102,"ELEMENT_SET_NO":999,"REV_AT_EPOCH":2726,"BSTAR":0.00032777596,"MEAN_MOTION_DOT":0.00012707,"MEAN_MOTION_DDOT":0},{"OBJECT_NAME":"STARLINK-34179","OBJECT_ID":"2025-110H","EPOCH":"2025-11-08T12:00:00.998784","MEAN_MOTION":15.30186014,"ECCENTRICITY":0.0001326,"INCLINATION":53.1598,"RA_OF_ASC_NODE":229.9964,"ARG_OF_PERICENTER":97.2288,"MEAN_ANOMALY":253.2539,"EPHEMERIS_TYPE":0,"CLASSIFICATION_TYPE":"U","NORAD_CAT_ID":64103,"ELEMENT_SET_NO":999,"REV_AT_EPOCH":594,"BSTAR":0.00023379,"MEAN_MOTION_DOT":6.568e-5,"MEAN_MOTION_DDOT":0},{"OBJECT_NAME":"STARLINK-34176","OBJECT_ID":"2025-110J","EPOCH":"2025-11-08T12:00:00.998784","MEAN_MOTION":15.30185156,"ECCENTRICITY":0.0001473,"INCLINATION":53.1594,"RA_OF_ASC_NODE":229.9274,"ARG_OF_PERICENTER":95.4364,"MEAN_ANOMALY":289.9358,"EPHEMERIS_TYPE":0,"CLASSIFICATION_TYPE":"U","NORAD_CAT_ID":64104,"ELEMENT_SET_NO":999,"REV_AT_EPOCH":594,"BSTAR":0.00028509,"MEAN_MOTION_DOT":8.09e-5,"MEAN_MOTION_DDOT":0},{"OBJECT_NAME":"STARLINK-33949","OBJECT_ID":"2025-110K","EPOCH":"2025-11-08T12:00:00.998784","MEAN_MOTION":15.30191199,"ECCENTRICITY":0.000156,"INCLINATION":53.1596,"RA_OF_ASC_NODE":229.8928,"ARG_OF_PERICENTER":105.8433,"MEAN_ANOMALY":296.9836,"EPHEMERIS_TYPE":0,"CLASSIFICATION_TYPE":"U","NORAD_CAT_ID":64105,"ELEMENT_SET_NO":999,"REV_AT_EPOCH":594,"BSTAR":0.00024459,"MEAN_MOTION_DOT":6.89e-5,"MEAN_MOTION_DDOT":0},{"OBJECT_NAME":"STARLINK-33970","OBJECT_ID":"2025-110L","EPOCH":"2025-11-08T12:00:00.998784","MEAN_MOTION":15.30492467,"ECCENTRICITY":0.0001387,"INCLINATION":53.1587,"RA_OF_ASC_NODE":229.7893,"ARG_OF_PERICENTER":110.1474,"MEAN_ANOMALY":344.9191,"EPHEMERIS_TYPE":0,"CLASSIFICATION_TYPE":"U","NORAD_CAT_ID":64106,"ELEMENT_SET_NO":999,"REV_AT_EPOCH":588,"BSTAR":-0.016915,"MEAN_MOTION_DOT":-0.00475012,"MEAN_MOTION_DDOT":0},{"OBJECT_NAME":"STARLINK-33912","OBJECT_ID":"2025-110M","EPOCH":"2025-11-08T12:00:00.998784","MEAN_MOTION":15.30991734,"ECCENTRICITY":0.0002095,"INCLINATION":53.1585,"RA_OF_ASC_NODE":229.7544,"ARG_OF_PERICENTER":100.3533,"MEAN_ANOMALY":11.8224,"EPHEMERIS_TYPE":0,"CLASSIFICATION_TYPE":"U","NORAD_CAT_ID":64107,"ELEMENT_SET_NO":999,"REV_AT_EPOCH":588,"BSTAR":0.001547,"MEAN_MOTION_DOT":0.00046893,"MEAN_MOTION_DDOT":0}]
